[{"OBJECT_NAME":"STARLINK-34488","OBJECT_ID":"2025-137L","EPOCH":"2026-03-09T22:17:50.782272","MEAN_MOTION":15.30219235,"ECCENTRICITY":0.00014202,"INCLINATION":53.1609,"RA_OF_ASC_NODE":333.9787,"ARG_OF_PERICENTER":120.7749,"MEAN_ANOMALY":239.3392,"EPHEMERIS_TYPE":0,"CLASSIFICATION_TYPE":"U","NORAD_CAT_ID":64604,"ELEMENT_SET_NO":999,"REV_AT_EPOCH":4077,"BSTAR":0.0011443771,"MEAN_MOTION_DOT":0.00033708,"MEAN_MOTION_DDOT":0},{"OBJECT_NAME":"OBJECT P","OBJECT_ID":"2018-099P","EPOCH":"2026-03-09T16:35:55.790016","MEAN_MOTION":15.30834106,"ECCENTRICITY":0.00076856,"INCLINATION":97.4366,"RA_OF_ASC_NODE":131.9195,"ARG_OF_PERICENTER":276.7627,"MEAN_ANOMALY":83.2739,"EPHEMERIS_TYPE":0,"CLASSIFICATION_TYPE":"U","NORAD_CAT_ID":43771,"ELEMENT_SET_NO":999,"REV_AT_EPOCH":39830,"BSTAR":0.00063632878,"MEAN_MOTION_DOT":0.00018926,"MEAN_MOTION_DDOT":0}]
